[{"OBJECT_NAME":"HULIANWANG DIGUI-49","OBJECT_ID":"2025-168A","EPOCH":"2026-03-05T02:42:24.804576","MEAN_MOTION":13.29338683,"ECCENTRICITY":0.0007413,"INCLINATION":50.0049,"RA_OF_ASC_NODE":339.2402,"ARG_OF_PERICENTER":152.0925,"MEAN_ANOMALY":208.0346,"EPHEMERIS_TYPE":0,"CLASSIFICATION_TYPE":"U","NORAD_CAT_ID":65106,"ELEMENT_SET_NO":999,"REV_AT_EPOCH":2884,"BSTAR":0.00018285,"MEAN_MOTION_DOT":-3.9e-7,"MEAN_MOTION_DDOT":0},{"OBJECT_NAME":"HULIANWANG DIGUI-50","OBJECT_ID":"2025-168B","EPOCH":"2026-03-05T02:30:18.864000","MEAN_MOTION":13.29339359,"ECCENTRICITY":0.0008373,"INCLINATION":50.0019,"RA_OF_ASC_NODE":339.1396,"ARG_OF_PERICENTER":138.1097,"MEAN_ANOMALY":222.0417,"EPHEMERIS_TYPE":0,"CLASSIFICATION_TYPE":"U","NORAD_CAT_ID":65107,"ELEMENT_SET_NO":999,"REV_AT_EPOCH":2884,"BSTAR":0.00019682,"MEAN_MOTION_DOT":-3.3e-7,"MEAN_MOTION_DDOT":0},{"OBJECT_NAME":"HULIANWANG DIGUI-51","OBJECT_ID":"2025-168C","EPOCH":"2026-03-05T04:06:31.540896","MEAN_MOTION":13.2933966,"ECCENTRICITY":0.0009736,"INCLINATION":50.0056,"RA_OF_ASC_NODE":338.896,"ARG_OF_PERICENTER":138.2256,"MEAN_ANOMALY":221.9361,"EPHEMERIS_TYPE":0,"CLASSIFICATION_TYPE":"U","NORAD_CAT_ID":65108,"ELEMENT_SET_NO":999,"REV_AT_EPOCH":2885,"BSTAR":0.00019217,"MEAN_MOTION_DOT":-3.5e-7,"MEAN_MOTION_DDOT":0},{"OBJECT_NAME":"HULIANWANG DIGUI-52","OBJECT_ID":"2025-168D","EPOCH":"2026-03-05T03:54:39.634272","MEAN_MOTION":13.29338309,"ECCENTRICITY":0.0009616,"INCLINATION":50.005,"RA_OF_ASC_NODE":338.8355,"ARG_OF_PERICENTER":151.1193,"MEAN_ANOMALY":209.0213,"EPHEMERIS_TYPE":0,"CLASSIFICATION_TYPE":"U","NORAD_CAT_ID":65109,"ELEMENT_SET_NO":999,"REV_AT_EPOCH":2885,"BSTAR":0.0001932,"MEAN_MOTION_DOT":-3.4e-7,"MEAN_MOTION_DDOT":0},{"OBJECT_NAME":"HULIANWANG DIGUI-53","OBJECT_ID":"2025-168E","EPOCH":"2026-03-05T03:42:37.733760","MEAN_MOTION":13.29338132,"ECCENTRICITY":0.0008416,"INCLINATION":50.0058,"RA_OF_ASC_NODE":338.8139,"ARG_OF_PERICENTER":140.796,"MEAN_ANOMALY":219.3523,"EPHEMERIS_TYPE":0,"CLASSIFICATION_TYPE":"U","NORAD_CAT_ID":65110,"ELEMENT_SET_NO":999,"REV_AT_EPOCH":2885,"BSTAR":0.00016157,"MEAN_MOTION_DOT":-4.9e-7,"MEAN_MOTION_DDOT":0},{"OBJECT_NAME":"HULIANWANG DIGUI-54","OBJECT_ID":"2025-168F","EPOCH":"2026-03-05T03:06:48.305664","MEAN_MOTION":13.29335385,"ECCENTRICITY":0.0010003,"INCLINATION":50.0008,"RA_OF_ASC_NODE":338.5938,"ARG_OF_PERICENTER":146.1089,"MEAN_ANOMALY":214.0424,"EPHEMERIS_TYPE":0,"CLASSIFICATION_TYPE":"U","NORAD_CAT_ID":65111,"ELEMENT_SET_NO":999,"REV_AT_EPOCH":2885,"BSTAR":0.00020138,"MEAN_MOTION_DOT":-3.1e-7,"MEAN_MOTION_DDOT":0},{"OBJECT_NAME":"HULIANWANG DIGUI-55","OBJECT_ID":"2025-168G","EPOCH":"2026-03-05T03:30:29.601216","MEAN_MOTION":13.29338833,"ECCENTRICITY":0.0011294,"INCLINATION":50.0014,"RA_OF_ASC_NODE":338.6875,"ARG_OF_PERICENTER":141.8983,"MEAN_ANOMALY":218.2689,"EPHEMERIS_TYPE":0,"CLASSIFICATION_TYPE":"U","NORAD_CAT_ID":65112,"ELEMENT_SET_NO":999,"REV_AT_EPOCH":2885,"BSTAR":0.00016165,"MEAN_MOTION_DOT":-4.9e-7,"MEAN_MOTION_DDOT":0},{"OBJECT_NAME":"HULIANWANG DIGUI-56","OBJECT_ID":"2025-168H","EPOCH":"2026-03-05T03:18:29.522016","MEAN_MOTION":13.29338204,"ECCENTRICITY":0.0010995,"INCLINATION":50.0005,"RA_OF_ASC_NODE":338.6286,"ARG_OF_PERICENTER":163.9002,"MEAN_ANOMALY":196.2222,"EPHEMERIS_TYPE":0,"CLASSIFICATION_TYPE":"U","NORAD_CAT_ID":65113,"ELEMENT_SET_NO":999,"REV_AT_EPOCH":2885,"BSTAR":0.0001613,"MEAN_MOTION_DOT":-4.9e-7,"MEAN_MOTION_DDOT":0},{"OBJECT_NAME":"HULIANWANG DIGUI-57","OBJECT_ID":"2025-168J","EPOCH":"2026-03-05T02:54:48.674880","MEAN_MOTION":13.29335181,"ECCENTRICITY":0.0008746,"INCLINATION":50.0033,"RA_OF_ASC_NODE":338.598,"ARG_OF_PERICENTER":154.3329,"MEAN_ANOMALY":205.7979,"EPHEMERIS_TYPE":0,"CLASSIFICATION_TYPE":"U","NORAD_CAT_ID":65114,"ELEMENT_SET_NO":999,"REV_AT_EPOCH":2886,"BSTAR":0.00020125,"MEAN_MOTION_DOT":-3.1e-7,"MEAN_MOTION_DDOT":0},{"OBJECT_NAME":"HULIANWANG DIGUI-58","OBJECT_ID":"2025-174A","EPOCH":"2026-03-05T03:51:53.704800","MEAN_MOTION":13.24421039,"ECCENTRICITY":0.0001256,"INCLINATION":86.4927,"RA_OF_ASC_NODE":287.1625,"ARG_OF_PERICENTER":87.4442,"MEAN_ANOMALY":272.6835,"EPHEMERIS_TYPE":0,"CLASSIFICATION_TYPE":"U","NORAD_CAT_ID":65164,"ELEMENT_SET_NO":999,"REV_AT_EPOCH":2702,"BSTAR":0.00010998,"MEAN_MOTION_DOT":6.2e-7,"MEAN_MOTION_DDOT":0},{"OBJECT_NAME":"HULIANWANG DIGUI-59","OBJECT_ID":"2025-174B","EPOCH":"2026-03-05T04:02:46.105152","MEAN_MOTION":13.24421217,"ECCENTRICITY":0.0001245,"INCLINATION":86.4887,"RA_OF_ASC_NODE":287.0895,"ARG_OF_PERICENTER":86.5941,"MEAN_ANOMALY":273.5335,"EPHEMERIS_TYPE":0,"CLASSIFICATION_TYPE":"U","NORAD_CAT_ID":65165,"ELEMENT_SET_NO":999,"REV_AT_EPOCH":2702,"BSTAR":0.00014667,"MEAN_MOTION_DOT":7.8e-7,"MEAN_MOTION_DDOT":0},{"OBJECT_NAME":"HULIANWANG DIGUI-60","OBJECT_ID":"2025-174C","EPOCH":"2026-03-05T04:13:36.506208","MEAN_MOTION":13.24421459,"ECCENTRICITY":0.0001217,"INCLINATION":86.4919,"RA_OF_ASC_NODE":287.1563,"ARG_OF_PERICENTER":88.7709,"MEAN_ANOMALY":271.3565,"EPHEMERIS_TYPE":0,"CLASSIFICATION_TYPE":"U","NORAD_CAT_ID":65166,"ELEMENT_SET_NO":999,"REV_AT_EPOCH":2702,"BSTAR":0.00016809,"MEAN_MOTION_DOT":8.7e-7,"MEAN_MOTION_DDOT":0},{"OBJECT_NAME":"HULIANWANG DIGUI-61","OBJECT_ID":"2025-174D","EPOCH":"2026-03-05T02:35:46.826304","MEAN_MOTION":13.24420031,"ECCENTRICITY":0.0001168,"INCLINATION":86.4928,"RA_OF_ASC_NODE":287.2019,"ARG_OF_PERICENTER":87.8856,"MEAN_ANOMALY":272.2412,"EPHEMERIS_TYPE":0,"CLASSIFICATION_TYPE":"U","NORAD_CAT_ID":65167,"ELEMENT_SET_NO":999,"REV_AT_EPOCH":2701,"BSTAR":0.00018026,"MEAN_MOTION_DOT":9.2e-7,"MEAN_MOTION_DDOT":0},{"OBJECT_NAME":"HULIANWANG DIGUI-62","OBJECT_ID":"2025-174E","EPOCH":"2026-03-05T02:46:35.564160","MEAN_MOTION":13.24421334,"ECCENTRICITY":0.000117,"INCLINATION":86.487,"RA_OF_ASC_NODE":287.0888,"ARG_OF_PERICENTER":90.0616,"MEAN_ANOMALY":270.0652,"EPHEMERIS_TYPE":0,"CLASSIFICATION_TYPE":"U","NORAD_CAT_ID":65168,"ELEMENT_SET_NO":999,"REV_AT_EPOCH":2701,"BSTAR":0.00012975,"MEAN_MOTION_DOT":7.0e-7,"MEAN_MOTION_DDOT":0},{"OBJECT_NAME":"HULIANWANG DIGUI-63","OBJECT_ID":"2025-174F","EPOCH":"2026-03-05T02:57:27.014112","MEAN_MOTION":13.24421684,"ECCENTRICITY":0.0001192,"INCLINATION":86.4923,"RA_OF_ASC_NODE":287.1956,"ARG_OF_PERICENTER":87.4623,"MEAN_ANOMALY":272.6648,"EPHEMERIS_TYPE":0,"CLASSIFICATION_TYPE":"U","NORAD_CAT_ID":65169,"ELEMENT_SET_NO":999,"REV_AT_EPOCH":2701,"BSTAR":8.3564e-5,"MEAN_MOTION_DOT":5.1e-7,"MEAN_MOTION_DDOT":0},{"OBJECT_NAME":"HULIANWANG DIGUI-64","OBJECT_ID":"2025-174G","EPOCH":"2026-03-05T03:08:19.912992","MEAN_MOTION":13.24421757,"ECCENTRICITY":0.000118,"INCLINATION":86.4881,"RA_OF_ASC_NODE":287.1185,"ARG_OF_PERICENTER":90.2521,"MEAN_ANOMALY":269.8748,"EPHEMERIS_TYPE":0,"CLASSIFICATION_TYPE":"U","NORAD_CAT_ID":65170,"ELEMENT_SET_NO":999,"REV_AT_EPOCH":2701,"BSTAR":8.3173e-5,"MEAN_MOTION_DOT":5.0e-7,"MEAN_MOTION_DDOT":0}]
