HULIANWANG DIGUI-49     
1 65106U 25168A   26064.11278709 -.00000039  00000+0  18285-3 0  9992
2 65106  50.0049 339.2402 0007413 152.0925 208.0346 13.29338683 28841
HULIANWANG DIGUI-50     
1 65107U 25168B   26064.10438500 -.00000033  00000+0  19682-3 0  9995
2 65107  50.0019 339.1396 0008373 138.1097 222.0417 13.29339359 28847
HULIANWANG DIGUI-51     
1 65108U 25168C   26064.17119839 -.00000035  00000+0  19217-3 0  9990
2 65108  50.0056 338.8960 0009736 138.2256 221.9361 13.29339660 28856
HULIANWANG DIGUI-52     
1 65109U 25168D   26064.16295873 -.00000034  00000+0  19320-3 0  9997
2 65109  50.0050 338.8355 0009616 151.1193 209.0213 13.29338309 28852
HULIANWANG DIGUI-53     
1 65110U 25168E   26064.15460340 -.00000049  00000+0  16157-3 0  9992
2 65110  50.0058 338.8139 0008416 140.7960 219.3523 13.29338132 28857
HULIANWANG DIGUI-54     
1 65111U 25168F   26064.12972576 -.00000031  00000+0  20138-3 0  9994
2 65111  50.0008 338.5938 0010003 146.1089 214.0424 13.29335385 28853
HULIANWANG DIGUI-55     
1 65112U 25168G   26064.14617594 -.00000049  00000+0  16165-3 0  9997
2 65112  50.0014 338.6875 0011294 141.8983 218.2689 13.29338833 28850
HULIANWANG DIGUI-56     
1 65113U 25168H   26064.13784169 -.00000049  00000+0  16130-3 0  9992
2 65113  50.0005 338.6286 0010995 163.9002 196.2222 13.29338204 28851
HULIANWANG DIGUI-57     
1 65114U 25168J   26064.12139670 -.00000031  00000+0  20125-3 0  9993
2 65114  50.0033 338.5980 0008746 154.3329 205.7979 13.29335181 28867
HULIANWANG DIGUI-58     
1 65164U 25174A   26064.16103825  .00000062  00000+0  10998-3 0  9992
2 65164  86.4927 287.1625 0001256  87.4442 272.6835 13.24421039 27027
HULIANWANG DIGUI-59     
1 65165U 25174B   26064.16858918  .00000078  00000+0  14667-3 0  9997
2 65165  86.4887 287.0895 0001245  86.5941 273.5335 13.24421217 27026
HULIANWANG DIGUI-60     
1 65166U 25174C   26064.17611697  .00000087  00000+0  16809-3 0  9990
2 65166  86.4919 287.1563 0001217  88.7709 271.3565 13.24421459 27020
HULIANWANG DIGUI-61     
1 65167U 25174D   26064.10818086  .00000092  00000+0  18026-3 0  9994
2 65167  86.4928 287.2019 0001168  87.8856 272.2412 13.24420031 27011
HULIANWANG DIGUI-62     
1 65168U 25174E   26064.11568940  .00000070  00000+0  12975-3 0  9990
2 65168  86.4870 287.0888 0001170  90.0616 270.0652 13.24421334 27012
HULIANWANG DIGUI-63     
1 65169U 25174F   26064.12322933  .00000051  00000+0  83564-4 0  9994
2 65169  86.4923 287.1956 0001192  87.4623 272.6648 13.24421684 27012
HULIANWANG DIGUI-64     
1 65170U 25174G   26064.13078603  .00000050  00000+0  83173-4 0  9994
2 65170  86.4881 287.1185 0001180  90.2521 269.8748 13.24421757 27017
